[{"OBJECT_NAME":"STARLINK-6073","OBJECT_ID":"2023-078AS","EPOCH":"2026-03-09T22:17:41.084736","MEAN_MOTION":14.99848742,"ECCENTRICITY":0.00116938,"INCLINATION":70.0028,"RA_OF_ASC_NODE":323.68,"ARG_OF_PERICENTER":295.6335,"MEAN_ANOMALY":64.3616,"EPHEMERIS_TYPE":0,"CLASSIFICATION_TYPE":"U","NORAD_CAT_ID":56807,"ELEMENT_SET_NO":999,"REV_AT_EPOCH":15321,"BSTAR":0.083955931,"MEAN_MOTION_DOT":0.01119436,"MEAN_MOTION_DDOT":0},{"OBJECT_NAME":"RAY 1.0","OBJECT_ID":"2025-009U","EPOCH":"2026-03-09T20:09:58.488192","MEAN_MOTION":15.20062713,"ECCENTRICITY":0.00072905,"INCLINATION":97.4036,"RA_OF_ASC_NODE":148.9866,"ARG_OF_PERICENTER":261.8547,"MEAN_ANOMALY":98.1862,"EPHEMERIS_TYPE":0,"CLASSIFICATION_TYPE":"U","NORAD_CAT_ID":62627,"ELEMENT_SET_NO":999,"REV_AT_EPOCH":6358,"BSTAR":0.00023774962,"MEAN_MOTION_DOT":5.065e-5,"MEAN_MOTION_DDOT":0}]
